{
    "links": {
        "self": "http://www.neowsapp.com/rest/v1/neo/3603657?api_key=iIulBulltgU6a56xZRHN4H3l9WmuAYTsLGpBGhQ2"
    },
    "id": "3603657",
    "neo_reference_id": "3603657",
    "name": "(2012 JH11)",
    "designation": "2012 JH11",
    "nasa_jpl_url": "http://ssd.jpl.nasa.gov/sbdb.cgi?sstr=3603657",
    "absolute_magnitude_h": 22.2,
    "estimated_diameter": {
        "kilometers": {
            "estimated_diameter_min": 0.096506147,
            "estimated_diameter_max": 0.2157943048
        },
        "meters": {
            "estimated_diameter_min": 96.5061469579,
            "estimated_diameter_max": 215.7943048444
        },
        "miles": {
            "estimated_diameter_min": 0.059966121,
            "estimated_diameter_max": 0.134088323
        },
        "feet": {
            "estimated_diameter_min": 316.6212271853,
            "estimated_diameter_max": 707.9865871058
        }
    },
    "is_potentially_hazardous_asteroid": false,
    "close_approach_data": [
        {
            "close_approach_date": "1990-05-14",
            "close_approach_date_full": "1990-May-14 04:40",
            "epoch_date_close_approach": 642660000000,
            "relative_velocity": {
                "kilometers_per_second": "4.4122602768",
                "kilometers_per_hour": "15884.1369965258",
                "miles_per_hour": "9869.7850132024"
            },
            "miss_distance": {
                "astronomical": "0.2442693847",
                "lunar": "95.0207906483",
                "kilometers": "36542179.657330589",
                "miles": "22706257.5359125682"
            },
            "orbiting_body": "Earth"
        },
        {
            "close_approach_date": "2012-05-07",
            "close_approach_date_full": "2012-May-07 21:29",
            "epoch_date_close_approach": 1336426140000,
            "relative_velocity": {
                "kilometers_per_second": "4.1788825731",
                "kilometers_per_hour": "15043.9772632328",
                "miles_per_hour": "9347.7424278126"
            },
            "miss_distance": {
                "astronomical": "0.1890160315",
                "lunar": "73.5272362535",
                "kilometers": "28276395.708252905",
                "miles": "17570137.555003889"
            },
            "orbiting_body": "Earth"
        },
        {
            "close_approach_date": "2034-05-05",
            "close_approach_date_full": "2034-May-05 09:46",
            "epoch_date_close_approach": 2030435160000,
            "relative_velocity": {
                "kilometers_per_second": "4.1545075406",
                "kilometers_per_hour": "14956.2271462215",
                "miles_per_hour": "9293.2179176063"
            },
            "miss_distance": {
                "astronomical": "0.1879680208",
                "lunar": "73.1195600912",
                "kilometers": "28119615.539795696",
                "miles": "17472718.8756887648"
            },
            "orbiting_body": "Earth"
        },
        {
            "close_approach_date": "2056-05-01",
            "close_approach_date_full": "2056-May-01 03:14",
            "epoch_date_close_approach": 2724376440000,
            "relative_velocity": {
                "kilometers_per_second": "4.3478892984",
                "kilometers_per_hour": "15652.4014743411",
                "miles_per_hour": "9725.7935716538"
            },
            "miss_distance": {
                "astronomical": "0.2229460421",
                "lunar": "86.7260103769",
                "kilometers": "33352253.023090327",
                "miles": "20724129.0379154326"
            },
            "orbiting_body": "Earth"
        }
    ],
    "orbital_data": {
        "orbit_id": "17",
        "orbit_determination_date": "2017-04-06 08:49:51",
        "first_observation_date": "2012-05-14",
        "last_observation_date": "2012-07-15",
        "data_arc_in_days": 62,
        "observations_used": 68,
        "orbit_uncertainty": "5",
        "minimum_orbit_intersection": ".184751",
        "jupiter_tisserand_invariant": "3.969",
        "epoch_osculation": "2459000.5",
        "eccentricity": ".3424575066342244",
        "semi_major_axis": "1.815076044415654",
        "inclination": "6.713681859343765",
        "ascending_node_longitude": "224.4965257639409",
        "orbital_period": "893.1834437605719",
        "perihelion_distance": "1.193489627893559",
        "perihelion_argument": "358.9096795598268",
        "aphelion_distance": "2.43666246093775",
        "perihelion_time": "2458728.773762394770",
        "mean_anomaly": "109.5199941526289",
        "mean_motion": ".4030527015640721",
        "equinox": "J2000",
        "orbit_class": {
            "orbit_class_type": "AMO",
            "orbit_class_description": "Near-Earth asteroid orbits similar to that of 1221 Amor",
            "orbit_class_range": "1.017 AU < q (perihelion) < 1.3 AU"
        }
    },
    "is_sentry_object": false
}